NORAD_CAT_ID,OBJECT_NAME,OBJECT_TYPE,EPOCH,MEAN_MOTION,ECCENTRICITY,INCLINATION,RA_OF_ASC_NODE,ARG_OF_PERICENTER,MEAN_ANOMALY,BSTAR,MEAN_MOTION_DOT,MEAN_MOTION_DDOT,TLE_LINE0,TLE_LINE1,TLE_LINE2,SEMIMAJOR_AXIS,PERIOD,APOGEE,PERIGEE,DECAYED
51149.0,STARLINK-3360,PAYLOAD,2022-02-25 00:00:00,15.59566466,0.0001416,53.2172,91.9767,49.9814,128.5858,-0.0081938999999999,-0.00615457,0.0,0 STARLINK-3360,1 51149U 22005AX  22056.00001157 -.00615457  00000-0 -81939-2 0  9990,2 51149  53.2172  91.9767 0001416  49.9814 128.5858 15.59566466  7139,6767.0480000000025,92.333,389.871,387.955,0.0
51149.0,STARLINK-3360,PAYLOAD,2022-02-25 14:00:01,15.58777846,0.0001369,53.2172,89.1479,58.1919,156.5157,-0.0090139,-0.006538,0.0,0 STARLINK-3360,1 51149U 22005AX  22056.58334491 -.00653800  00000-0 -90139-2 0  9999,2 51149  53.2172  89.1479 0001369  58.1919 156.5157 15.58777846  7221,6769.33,92.38,392.122,390.268,0.0
51149.0,STARLINK-3360,PAYLOAD,2022-02-25 22:00:00,15.58311393,0.0001286,53.2175,87.5305,57.1753,228.851,-0.0091834,-0.00654326,0.0,0 STARLINK-3360,1 51149U 22005AX  22056.91667824 -.00654326  00000-0 -91834-2 0  9992,2 51149  53.2175  87.5305 0001286  57.1753 228.8510 15.58311393  3691,6770.681,92.408,393.417,391.675,0.0
51149.0,STARLINK-3360,PAYLOAD,2022-02-26 14:00:01,15.57379838,0.0001272,53.2171,84.305,50.6025,16.3745,-0.0095424,-0.00656214,0.0,0 STARLINK-3360,1 51149U 22005AX  22057.58334491 -.00656214  00000-0 -95424-2 0  9994,2 51149  53.2171  84.3050 0001272  50.6025  16.3745 15.57379838  7370,6773.380999999999,92.463,396.107,394.384,0.0
51149.0,STARLINK-3360,PAYLOAD,2022-02-26 22:00:00,15.569122199999995,0.0001385999999999,53.2171,82.691,49.9244,86.6897,-0.0096945,-0.00655159,0.0,0 STARLINK-3360,1 51149U 22005AX  22057.91667824 -.00655159  00000-0 -96945-2 0  9996,2 51149  53.2171  82.6910 0001386  49.9244  86.6897 15.56912220  3692,6774.736999999999,92.491,397.541,395.663,0.0
51149.0,STARLINK-3360,PAYLOAD,2022-02-27 14:00:01,15.55980932,0.000128,53.2171,79.472,61.4444,212.7567,-0.010075,-0.00657364,0.0,0 STARLINK-3360,1 51149U 22005AX  22058.58334491 -.00657364  00000-0 -10075-1 0  9990,2 51149  53.2171  79.4720 0001280  61.4444 212.7567 15.55980932  7536,6777.44,92.546,400.172,398.437,0.0
51149.0,STARLINK-3360,PAYLOAD,2022-02-27 22:00:00,15.55511848,0.0001222,53.2173,77.8614,55.4938,286.6633,-0.010197,-0.00654078,0.0,0 STARLINK-3360,1 51149U 22005AX  22058.91667824 -.00654078  00000-0 -10197-1 0  9990,2 51149  53.2173  77.8614 0001222  55.4938 286.6633 15.55511848  3704,6778.802,92.574,401.496,399.839,0.0
51149.0,STARLINK-3360,PAYLOAD,2022-02-28 14:00:01,15.54580639,0.0001358,53.2172,74.6492,50.5875,65.7928,-0.010599,-0.00656649,0.0,0 STARLINK-3360,1 51149U 22005AX  22059.58334491 -.00656649  00000-0 -10599-1 0  9997,2 51149  53.2172  74.6492 0001358  50.5875  65.7928 15.54580639  7685,6781.509,92.629,404.295,402.453,0.0
51149.0,STARLINK-3360,PAYLOAD,2022-02-28 22:00:00,15.54113913,0.0001460999999999,53.2172,73.042,51.1095,131.5436,-0.010784,-0.00656743,0.0,0 STARLINK-3360,1 51149U 22005AX  22059.91667824 -.00656743  00000-0 -10784-1 0  9994,2 51149  53.2172  73.0420 0001461  51.1095 131.5436 15.54113913  3707,6782.8669999999975,92.657,405.723,403.741,0.0
51149.0,STARLINK-3360,PAYLOAD,2022-03-01 14:00:01,15.53182188,0.0001202,53.2171,69.8365,65.8443,247.6684,-0.01119,-0.00658434,0.0,0 STARLINK-3360,1 51149U 22005AX  22060.58334491 -.00658434  00000-0 -11190-1 0  9991,2 51149  53.2171  69.8365 0001202  65.8443 247.6684 15.53182188  3689,6785.579000000002,92.713,408.26,406.628,0.0
51149.0,STARLINK-3360,PAYLOAD,2022-03-01 22:00:01,15.52712353,0.0001274999999999,53.2173,68.2327,49.7392,328.4304,-0.011301,-0.00654063,0.0,0 STARLINK-3360,1 51149U 22005AX  22060.91668981 -.00654063  00000-0 -11301-1 0  9990,2 51149  53.2173  68.2327 0001275  49.7392 328.4304 15.52712353  7892,6786.948,92.741,409.67800000000005,407.947,0.0
51149.0,STARLINK-3360,PAYLOAD,2022-03-02 14:00:01,15.51781382,0.0001374,53.2171,65.03399999999999,55.8451,89.7553,-0.01174,-0.00656734,0.0,0 STARLINK-3360,1 51149U 22005AX  22061.58334491 -.00656734  00000-0 -11740-1 0  9994,2 51149  53.2171  65.0340 0001374  55.8451  89.7553 15.51781382  3676,6789.6619999999975,92.797,412.46,410.594,0.0
51149.0,STARLINK-3360,PAYLOAD,2022-03-02 20:00:01,15.51429339,0.0001385999999999,53.2173,63.8336,46.4129,56.4225,-0.011822,-0.00653274,0.0,0 STARLINK-3360,1 51149U 22005AX  22061.83334491 -.00653274  00000-0 -11822-1 0  9999,2 51149  53.2173  63.8336 0001386  46.4129  56.4225 15.51429339  8033,6790.689,92.818,413.495,411.61300000000006,0.0
51149.0,STARLINK-3360,PAYLOAD,2022-03-02 22:00:00,15.51314683,0.0001484,53.2171,63.4335,53.618,154.8913,-0.011942,-0.00656899,0.0,0 STARLINK-3360,1 51149U 22005AX  22061.91667824 -.00656899  00000-0 -11942-1 0  9996,2 51149  53.2171  63.4335 0001484  53.6180 154.8913 15.51314683  3691,6791.024,92.824,413.896,411.881,0.0
51149.0,STARLINK-3360,PAYLOAD,2022-03-03 14:00:01,15.5038263,0.0001200999999999,53.2172,60.2414,62.5405,270.101,-0.012374,-0.00658147,0.0,0 STARLINK-3360,1 51149U 22005AX  22062.58334491 -.00658147  00000-0 -12374-1 0  9999,2 51149  53.2172  60.2414 0001201  62.5405 270.1010 15.50382630  3697,6793.745,92.88,416.426,414.794,0.0
51149.0,STARLINK-3360,PAYLOAD,2022-03-03 18:00:00,15.50149198,0.000147,53.2174,59.4429,48.8155,134.509,-0.012448,-0.00656751,0.0,0 STARLINK-3360,1 51149U 22005AX  22062.75001157 -.00656751  00000-0 -12448-1 0  9999,2 51149  53.2174  59.4429 0001470  48.8155 134.5090 15.50149198  8182,6794.427,92.894,417.291,415.293,0.0
51149.0,STARLINK-3360,PAYLOAD,2022-03-03 22:00:00,15.49913211,0.0001339,53.2173,58.6446,47.7845,346.0849,-0.012495,-0.00653928,0.0,0 STARLINK-3360,1 51149U 22005AX  22062.91667824 -.00653928  00000-0 -12495-1 0  9991,2 51149  53.2173  58.6446 0001339  47.7845 346.0849 15.49913211  3684,6795.1169999999975,92.908,417.892,416.072,0.0
51149.0,STARLINK-3360,PAYLOAD,2022-03-04 14:00:01,15.48950585,0.0001431,53.2172,55.4604,51.442,103.2618,-9.165e-05,-5.476e-05,0.0,0 STARLINK-3360,1 51149U 22005AX  22063.58335648 -.00005476  00000-0 -91650-4 0  9993,2 51149  53.2172  55.4604 0001431  51.4420 103.2618 15.48950585  8314,6797.932,92.966,420.77,418.824,0.0
51149.0,STARLINK-3360,PAYLOAD,2022-03-04 22:00:00,15.48949841,0.000152,53.2173,53.8681,50.6062,163.8217,-6.3977e-05,-3.958e-05,0.0,0 STARLINK-3360,1 51149U 22005AX  22063.91667824 -.00003958  00000-0 -63977-4 0  9998,2 51149  53.2173  53.8681 0001520  50.6062 163.8217 15.48949841  3689,6797.934,92.966,420.832,418.766,0.0
51149.0,STARLINK-3360,PAYLOAD,2022-03-05 06:00:00,15.48948766,0.0001601,53.2174,52.2793,48.7334,225.4817,-3.4007e-05,-2.313e-05,0.0,0 STARLINK-3360,1 51149U 22005AX  22064.25001157 -.00002313  00000-0 -34007-4 0  9993,2 51149  53.2174  52.2793 0001601  48.7334 225.4817 15.48948766  3739,6797.937,92.966,420.89,418.714,0.0
51149.0,STARLINK-3360,PAYLOAD,2022-03-05 14:00:01,15.49132752,0.000127,53.2159,50.6965,47.2445,287.0315,-0.00047469,-0.00026594,0.0,0 STARLINK-3360,1 51149U 22005AX  22064.58334491 -.00026594  00000-0 -47469-3 0  9991,2 51149  53.2159  50.6965 0001270  47.2445 287.0315 15.49132752  8467,6797.399,92.955,420.127,418.401,0.0
51149.0,STARLINK-3360,PAYLOAD,2022-03-05 22:00:01,15.49118295,0.0001322,53.2164,49.1036,63.8456,330.4912,-6.5935e-05,-4.088e-05,0.0,0 STARLINK-3360,1 51149U 22005AX  22064.91668981 -.00004088  00000-0 -65935-4 0  9995,2 51149  53.2164  49.1036 0001322  63.8456 330.4912 15.49118295  3691,6797.441,92.956,420.205,418.407,0.0
51149.0,STARLINK-3360,PAYLOAD,2022-03-06 06:00:00,15.49541726,0.000144,53.2172,47.5101,37.8951,56.3507,-0.035639,-0.01775868,0.0,0 STARLINK-3360,1 51149U 22005AX  22065.25001157 -.01775868  00000-0 -35639-1 0  9996,2 51149  53.2172  47.5101 0001440  37.8951  56.3507 15.49541726  8561,6796.203,92.931,419.046,417.089,0.0
51149.0,STARLINK-3360,PAYLOAD,2022-03-06 14:00:01,15.48414801,0.0001179,53.2172,45.9124,56.6587,97.1179,0.0029625,0.00162595,0.0,0 STARLINK-3360,1 51149U 22005AX  22065.58334491  .00162595  00000-0  29625-2 0  9995,2 51149  53.2172  45.9124 0001179  56.6587  97.1179 15.48414801  8628,6799.5,92.998,422.166,420.56300000000016,0.0
51149.0,STARLINK-3360,PAYLOAD,2022-03-06 22:00:00,15.48515113,0.0001537,53.2173,44.3204,51.7767,161.1328,-0.013155,-0.0065514,0.0,0 STARLINK-3360,1 51149U 22005AX  22065.91667824 -.00655140  00000-0 -13155-1 0  9996,2 51149  53.2173  44.3204 0001537  51.7767 161.1328 15.48515113  8676,6799.206,92.992,422.116,420.026,0.0
51149.0,STARLINK-3360,PAYLOAD,2022-03-07 12:00:00,15.47699789,0.0001561,53.2171,41.5391,48.386,177.3754,-0.013603,-0.00658076,0.0,0 STARLINK-3360,1 51149U 22005AX  22066.50001157 -.00658076  00000-0 -13603-1 0  9992,2 51149  53.2171  41.5391 0001561  48.3860 177.3754 15.47699789  3727,6801.594,93.041,424.521,422.397,0.0
51149.0,STARLINK-3360,PAYLOAD,2022-03-07 22:00:00,15.47113823,0.0001368,53.2175,39.5517,49.3273,338.8508,-0.01376,-0.00652607,0.0,0 STARLINK-3360,1 51149U 22005AX  22066.91667824 -.00652607  00000-0 -13760-1 0  9994,2 51149  53.2175  39.5517 0001368  49.3273 338.8508 15.47113823  3688,6803.311,93.077,426.107,424.245,0.0
51149.0,STARLINK-3360,PAYLOAD,2022-03-08 06:00:02,15.46650053,0.0001544,53.2176,37.9663,44.0578,41.4841,-0.0141039999999999,-0.00657792,0.0,0 STARLINK-3360,1 51149U 22005AX  22067.25002315 -.00657792  00000-0 -14104-1 0  9993,2 51149  53.2176  37.9663 0001544  44.0578  41.4841 15.46650053  8872,6804.670999999999,93.104,427.587,425.485,0.0
51149.0,STARLINK-3360,PAYLOAD,2022-03-08 14:00:01,15.46182504,0.0001395,53.2173,36.3789,56.1573,86.0621,-0.014293,-0.00656005,0.0,0 STARLINK-3360,1 51149U 22005AX  22067.58334491 -.00656005  00000-0 -14293-1 0  9997,2 51149  53.2173  36.3789 0001395  56.1573  86.0621 15.46182504  3691,6806.043000000002,93.133,428.857,426.958,0.0
